[{"OBJECT_NAME":"ARCSTONE","OBJECT_ID":"2025-135N","EPOCH":"2026-03-09T21:21:29.017152","MEAN_MOTION":15.28638458,"ECCENTRICITY":0.00041199,"INCLINATION":97.4495,"RA_OF_ASC_NODE":185.9194,"ARG_OF_PERICENTER":166.7863,"MEAN_ANOMALY":193.3485,"EPHEMERIS_TYPE":0,"CLASSIFICATION_TYPE":"U","NORAD_CAT_ID":64540,"ELEMENT_SET_NO":999,"REV_AT_EPOCH":3984,"BSTAR":0.00094899777,"MEAN_MOTION_DOT":0.00026427,"MEAN_MOTION_DDOT":0},{"OBJECT_NAME":"STARLINK-35758","OBJECT_ID":"2025-244Z","EPOCH":"2026-03-09T16:54:58.286592","MEAN_MOTION":15.30203217,"ECCENTRICITY":9.365e-5,"INCLINATION":53.16,"RA_OF_ASC_NODE":229.7065,"ARG_OF_PERICENTER":80.3876,"MEAN_ANOMALY":279.7231,"EPHEMERIS_TYPE":0,"CLASSIFICATION_TYPE":"U","NORAD_CAT_ID":66229,"ELEMENT_SET_NO":999,"REV_AT_EPOCH":2166,"BSTAR":0.00059310301,"MEAN_MOTION_DOT":0.00017249,"MEAN_MOTION_DDOT":0}]
